{"type": "FeatureCollection", "name": "cusco_region", "atribucion": "Límite departamental de Cusco. geoBoundaries (gbOpen, release 90a1d52), https://www.geoboundaries.org/ — CC BY 4.0. Provisional: sustituir por el polígono oficial del INEI cuando PREDES lo entregue (ver dependencias del cliente en el spec 00).", "features": [{"type": "Feature", "properties": {"nombre": "Cusco", "iso": "PE-CUS", "fuente": "geoBoundaries gbOpen ADM1"}, "geometry": {"type": "Polygon", "coordinates": [[[-70.39419658607773, -13.161941704860737], [-70.43327021799996, -13.163802353999927], [-70.50090485899995, -13.15986247199993], [-70.54096032599983, -13.13884976799983], [-70.56788285199997, -13.119807004999927], [-70.58626896799996, -13.108644005999906], [-70.62829437599993, -13.103390829999967], [-70.65915678499988, -13.10207753599991], [-70.69527236999994, -13.111270593999905], [-70.72744807299995, -13.113240534999932], [-70.75962377599996, -13.10536077099988], [-70.7783382149999, -13.09395152899998], [-70.80398848799985, -13.080613386999971], [-70.8327167949999, -13.075483332999966], [-70.8583670679999, -13.078561364999928], [-70.88196531899996, -13.090873496999961], [-70.90248553799995, -13.112419725999871], [-70.92505777899993, -13.143200053999976], [-70.94865602999988, -13.17090234899996], [-70.97020225999995, -13.192448578999915], [-70.98046236899995, -13.222202895999885], [-70.99687854399997, -13.246827157999974], [-71.01739876299996, -13.251957212999912], [-71.04099701399991, -13.237593059999881], [-71.06254324399998, -13.242723114999876], [-71.09742761499996, -13.229384972999924], [-71.11486980099994, -13.203734698999938], [-71.12512991099993, -13.160642239999959], [-71.1415460849999, -13.12780988999998], [-71.14975417299996, -13.098055572999954], [-71.15078018399993, -13.011870654999882], [-71.17027439199995, -12.968778195999903], [-71.2061847739999, -12.957492074999891], [-71.24312116799996, -12.955440052999961], [-71.2739014959999, -12.949283987999877], [-71.29955176899989, -12.93491983499996], [-71.32212400999998, -12.915425626999934], [-71.34777428299998, -12.90106147399996], [-71.37342455599997, -12.890801364999959], [-71.4093349389999, -12.882593276999955], [-71.42677712499989, -12.865151090999973], [-71.43703723399989, -12.849760926999977], [-71.44319329999996, -12.824110653999924], [-71.47274241499997, -12.778350565999972], [-71.4976950009999, -12.757337861999872], [-71.52527417399983, -12.720565630999943], [-71.55219670099996, -12.69626969199993], [-71.59093887399996, -12.696926338999958], [-71.62311457699997, -12.71531245499989], [-71.65988680899989, -12.74157833399994], [-71.6841827479999, -12.76718756699995], [-71.71570180399993, -12.78623032999991], [-71.75313068299994, -12.780977153999856], [-71.77414338599993, -12.769157507999864], [-71.79515608999998, -12.740265039999827], [-71.82207861699993, -12.723192218999941], [-71.85359767299997, -12.716625748999945], [-71.90350284499982, -12.709402631999922], [-71.92779878399995, -12.69626969199993], [-71.94487160599994, -12.680510163999884], [-71.9494681349999, -12.650304401999904], [-71.95800454599993, -12.620098639999924], [-71.97376407399997, -12.591206171999886], [-71.99018024899993, -12.563626997999961], [-72.00396983499996, -12.530794647999812], [-72.03220565599992, -12.510438590999968], [-72.05847153599996, -12.483516064999947], [-72.06109812399995, -12.473666359999982], [-72.03154900899995, -12.44083400999989], [-72.00265654099991, -12.41062824799991], [-71.97967389699988, -12.384362367999927], [-71.96588430999998, -12.367289545999881], [-71.93779469499992, -12.332972044999963], [-71.94901668999995, -12.294496634999973], [-71.9794763889999, -12.276862071999972], [-72.01314237299994, -12.265640077999876], [-72.05001464099996, -12.257624366999949], [-72.07566491399996, -12.24319608899998], [-72.09169633499994, -12.212736388999929], [-72.09650576199994, -12.185482973999967], [-72.08368062499989, -12.135785568999893], [-72.09490261899998, -12.10051644299989], [-72.12536231899986, -12.076469311999915], [-72.1670440129999, -12.060437890999879], [-72.20070999699993, -12.054025322999905], [-72.23437598099997, -12.052422180999883], [-72.26162939599993, -12.041200185999969], [-72.27766081699997, -12.020359338999981], [-72.30331108999997, -11.991502781999884], [-72.32575507899992, -11.969058791999942], [-72.34338964199998, -11.935392808999836], [-72.3514053529999, -11.901726824999969], [-72.35781792099982, -11.863251414999922], [-72.37705562599996, -11.837601141999926], [-72.39949961499997, -11.815157152999973], [-72.39308704699988, -11.77026917399985], [-72.37865876799998, -11.73500004799996], [-72.36102420499998, -11.715762342999938], [-72.3514053529999, -11.698127779999936], [-72.34499278399994, -11.659652369999947], [-72.33377078999996, -11.63400209699995], [-72.31613622699996, -11.600336112999912], [-72.30972365899999, -11.565066987999955], [-72.29529537999997, -11.518575866999925], [-72.28407338499994, -11.483306740999979], [-72.27285139099996, -11.43681562099988], [-72.25361368599994, -11.39994335299997], [-72.23758226499996, -11.363071084999945], [-72.23918540699998, -11.343833379999978], [-72.24456974844844, -11.319988439984854], [-72.25681996999998, -11.314475840999933], [-72.27485531799994, -11.303654631999962], [-72.29018536399991, -11.300949328999934], [-72.31994368899996, -11.320788212999958], [-72.35150554899997, -11.325297049999904], [-72.38396917599988, -11.3424306309999], [-72.40561159399994, -11.356858908999925], [-72.43446815199985, -11.373090722999848], [-72.46152117499992, -11.391126071999963], [-72.50029717399997, -11.41637555899996], [-72.5174307549999, -11.428098535999936], [-72.54899261399993, -11.43621444299987], [-72.58693898799993, -11.431236685999977], [-72.61694980699997, -11.421425456999884], [-72.63541800399997, -11.412191357999859], [-72.67408579099998, -11.386220456999979], [-72.69774816799992, -11.365443734999872], [-72.73237603699994, -11.362558079999928], [-72.7877806279999, -11.381026275999886], [-72.80567169299997, -11.385066193999933], [-72.84203095599992, -11.37063791599985], [-72.87319603799989, -11.359672423999939], [-72.90089833299993, -11.353323980999903], [-72.91705800499994, -11.334855783999956], [-72.93379480899989, -11.32273602999993], [-72.94476030099992, -11.293302341999947], [-72.95053161199996, -11.267908570999964], [-72.95688005499994, -11.25290316099995], [-72.96957693999997, -11.24020627599998], [-72.98804513699992, -11.238474881999878], [-73.00305054699999, -11.24482332499997], [-73.01610813899998, -11.254057422999892], [-73.04316116199988, -11.264878631999977], [-73.07652655599992, -11.274798073999932], [-73.10538311399984, -11.291931654999871], [-73.14055204299996, -11.300047561999918], [-73.1883457159999, -11.304556398999978], [-73.22712171599994, -11.308163468999965], [-73.26138887799982, -11.307261700999959], [-73.27401362199998, -11.30185109699994], [-73.30557548099989, -11.307261700999959], [-73.32270906199994, -11.316279375999954], [-73.34886031799994, -11.331609421999929], [-73.37427888699995, -11.34958840999991], [-73.41514022299998, -11.372132594999869], [-73.4252062820936, -11.371503466585636], [-73.45378997499989, -11.446819226999878], [-73.46417833499993, -11.479138571999954], [-73.47687522099994, -11.509149391999927], [-73.50804030299997, -11.5397373429999], [-73.52881702399998, -11.562245456999904], [-73.53978251599995, -11.577827998999908], [-73.56575341799999, -11.595141932999923], [-73.58422161499993, -11.61072447399988], [-73.59922702499983, -11.651700785999935], [-73.59691849999996, -11.686328654999954], [-73.58595300799993, -11.707682506999845], [-73.57383325399991, -11.729036359999895], [-73.56806194199987, -11.757892916999879], [-73.56055923799994, -11.789057998999965], [-73.54093677799995, -11.807742619999942], [-73.52650849999986, -11.828483270999982], [-73.5066696159999, -11.847420386999943], [-73.48142012899996, -11.864553967999939], [-73.46248301299983, -11.885294618999978], [-73.44895650099983, -11.90423173399995], [-73.43452822299992, -11.936695361999966], [-73.43092115299999, -11.972766058999923], [-73.4191981759999, -12.008836754999948], [-73.40476989799998, -12.040398614999958], [-73.40026106099998, -12.062041032999957], [-73.38673454899998, -12.091799357999946], [-73.37050273599988, -12.11524531099991], [-73.36599389899993, -12.133280659999912], [-73.3759133399999, -12.148610705999943], [-73.3894398519999, -12.157628379999892], [-73.41739464199998, -12.174761960999945], [-73.43452822299992, -12.187386704999938], [-73.45707240799999, -12.21263619299998], [-73.46789361699996, -12.231573308999941], [-73.47781305899991, -12.247805121999932], [-73.49855370999995, -12.262233400999946], [-73.53101733699998, -12.264938702999928], [-73.55536505699996, -12.281170516999964], [-73.56402202399994, -12.305013246999977], [-73.57383325399991, -12.351183738999907], [-73.58768440199992, -12.384657345999926], [-73.60499833599994, -12.392160050999962], [-73.61827235199985, -12.388697263999973], [-73.63904907399996, -12.373114722999958], [-73.6621343199999, -12.342526771999928], [-73.6829110409999, -12.30616750999991], [-73.70945907399994, -12.286545050999962], [-73.73831563199997, -12.272116771999947], [-73.76197800899996, -12.258265623999932], [-73.78910317299989, -12.247877263999953], [-73.81218841899994, -12.245568738999907], [-73.83931358299986, -12.252494312999943], [-73.85893604199993, -12.255957099999932], [-73.87567284499988, -12.257111361999875], [-73.89529530399994, -12.246145869999964], [-73.91491776399994, -12.242105951999918], [-73.93800300999999, -12.252494312999943], [-73.95704833699983, -12.273848164999947], [-73.9791622586933, -12.295962086693237], [-73.97456747399997, -12.309504609999976], [-73.96340447499995, -12.329860666999934], [-73.94633165299996, -12.360723075999886], [-73.92006577299992, -12.39683866099989], [-73.89576983499995, -12.423104540999873], [-73.87278718999994, -12.461846713999876], [-73.85768430899992, -12.49533570999995], [-73.83601495799996, -12.539331058999949], [-73.81959878299995, -12.564940291999903], [-73.79398954999988, -12.601712523999936], [-73.78282655099997, -12.622725227999979], [-73.76575372899998, -12.642424637999966], [-73.74474102499994, -12.652930989999902], [-73.71067746199986, -12.680469122999966], [-73.68605319999983, -12.70817141799995], [-73.65937691599993, -12.731769669999892], [-73.63783068599992, -12.757419942999832], [-73.60192030299999, -12.816928576999885], [-73.57319199699998, -12.862073057999908], [-73.53625560399996, -12.913373604999947], [-73.51470937399995, -12.955440052999961], [-73.49316314399988, -13.006740599999944], [-73.47879899099996, -13.05188508099991], [-73.45622675099997, -13.094977539999888], [-73.42544642299998, -13.146278086999928], [-73.38953603999994, -13.229384972999924], [-73.35567767899988, -13.283763551999982], [-73.33252830799995, -13.314094999999895], [-73.30527489199983, -13.352570409999942], [-73.27802147699987, -13.383030109999936], [-73.23954606699988, -13.410283524999954], [-73.2154989359999, -13.429521229999978], [-73.20919584998819, -13.431412155882072], [-73.18343609399994, -13.43914008299987], [-73.13373868899993, -13.44234636699997], [-73.08564442699992, -13.445552650999957], [-73.03915330599995, -13.43914008299987], [-73.01510617499997, -13.424711803999969], [-72.97983704899997, -13.403870956999981], [-72.92212393399996, -13.384633251999958], [-72.88364852399991, -13.400664672999824], [-72.82433226699993, -13.43914008299987], [-72.79387256799998, -13.450362076999966], [-72.75539715799994, -13.466393497999945], [-72.69287461599998, -13.498456339999905], [-72.61432065399993, -13.551360028999966], [-72.57424210199991, -13.572200875999954], [-72.53095726599992, -13.581819727999914], [-72.49408499799989, -13.589835438999955], [-72.45400644599988, -13.604263716999867], [-72.41553103599989, -13.628310847999842], [-72.38346819399999, -13.653961121999941], [-72.34338964199998, -13.686023962999911], [-72.30331108999997, -13.713277378999976], [-72.27844827999985, -13.71078930199991], [-72.25612228199998, -13.706192772999884], [-72.2423326949999, -13.706192772999884], [-72.21672346299994, -13.718012418999876], [-72.19374081799998, -13.73771182899992], [-72.16878823199988, -13.756754591999822], [-72.13529923499993, -13.79221352999997], [-72.1037801789999, -13.844088642999907], [-72.08079753399983, -13.89333716799996], [-72.05978482999984, -13.966881630999978], [-72.05674783799998, -13.992737106999925], [-72.04751373899995, -14.008127270999921], [-72.04648772899998, -14.0512197299999], [-72.06290390299989, -14.117910440999935], [-72.06803395799989, -14.172289019999823], [-72.08650215499995, -14.22974563199989], [-72.13369865799996, -14.282072189999894], [-72.19628532499996, -14.334398747999899], [-72.23937778399994, -14.388777326999957], [-72.28554827599993, -14.434947818999888], [-72.32248466999994, -14.45033798299994], [-72.38712335799994, -14.485222354999962], [-72.43739789399996, -14.506768583999929], [-72.47536029899993, -14.54165295599995], [-72.48562040799993, -14.566277217999982], [-72.48356838599989, -14.591927491999911], [-72.46510018899994, -14.613473720999934], [-72.45791811299995, -14.63912399499992], [-72.46920423299997, -14.669904322999855], [-72.4712562549999, -14.69042454099997], [-72.47156168694153, -14.691166304347405], [-72.4784383309999, -14.707866726999896], [-72.48869844099988, -14.734543011999904], [-72.48151636399984, -14.75403721899994], [-72.4456059819999, -14.785843557999954], [-72.43226783899996, -14.80020771099987], [-72.3932794239999, -14.819701918999897], [-72.33377078999996, -14.82585798499997], [-72.2660540679999, -14.824831973999892], [-72.21680554299996, -14.80738978799991], [-72.18192117199993, -14.799181699999963], [-72.13985472299993, -14.799181699999963], [-72.11112641699998, -14.827910005999911], [-72.08752816599991, -14.867924432999871], [-72.07316401299988, -14.880236563999915], [-72.04853974999997, -14.881262574999937], [-72.02494149899991, -14.842274159999874], [-72.02699352099995, -14.793025634999879], [-72.02391548799994, -14.73967306599991], [-72.01673341099996, -14.695554595999965], [-71.99723920399992, -14.656566180999903], [-71.96440685399995, -14.655540169999938], [-71.9254184379999, -14.699658639999882], [-71.92336641699995, -14.736595032999958], [-71.92131439499997, -14.766349349999928], [-71.89566412099998, -14.787895579999883], [-71.87822193499989, -14.802259732999914], [-71.85462368399993, -14.841248148999966], [-71.84538958599984, -14.880236563999915], [-71.82281734499998, -14.899730771999941], [-71.80332313699995, -14.912042902999929], [-71.76946477699988, -14.942823230999863], [-71.75407461299994, -14.969499514999939], [-71.74997056899986, -14.987967711999886], [-71.77151679799994, -15.017722028999913], [-71.80742718099992, -15.050554378999891], [-71.81563526899998, -15.069022575999952], [-71.80229712599993, -15.098776892999979], [-71.75510062399997, -15.110063012999944], [-71.70501159099996, -15.10855436699984], [-71.68189761599996, -15.10771385799984], [-71.65037855999998, -15.122422750999874], [-71.63104687299995, -15.13839240599998], [-71.60919366099995, -15.148898757999973], [-71.58649993999995, -15.133769610999934], [-71.56128469599997, -15.122422750999874], [-71.52556309899995, -15.098888522999971], [-71.4982465839999, -15.083759375999875], [-71.48942124799993, -15.076615056999856], [-71.48395794499999, -15.066528958999925], [-71.49362378899997, -15.044675746999872], [-71.4932035349999, -15.024503550999952], [-71.4705098149999, -15.005171862999873], [-71.44529456999993, -15.005171862999873], [-71.41101759699995, -15.023426649999863], [-71.39722800999988, -15.03458964899994], [-71.38409506999994, -15.054945705999955], [-71.36833554199984, -15.073331821999886], [-71.35257601399991, -15.095001172999957], [-71.33025001599998, -15.108790759999863], [-71.30923731199988, -15.116670522999982], [-71.29150784299998, -15.11929711099998], [-71.27115178699995, -15.108790759999863], [-71.25079572999994, -15.08909134999982], [-71.22781308499992, -15.07530176299997], [-71.20286049899988, -15.072675174999915], [-71.1726547369999, -15.08974799699996], [-71.16346167899991, -15.108134112999949], [-71.14441891599995, -15.13833987399994], [-71.14704550399995, -15.150159519999931], [-71.15952179699997, -15.173142164999945], [-71.15820850299986, -15.188245045999906], [-71.15164203299992, -15.20466122099998], [-71.15886514999983, -15.225673924999967], [-71.17331138399999, -15.252596451999977], [-71.17790791299996, -15.270325920999937], [-71.16805820799993, -15.295935153999949], [-71.15426862099991, -15.329424150999955], [-71.14967209199989, -15.370792910999967], [-71.14901544499992, -15.387865732999956], [-71.15623856199994, -15.407565142999886], [-71.16740156099996, -15.422011376999933], [-71.15886514999983, -15.443024080999862], [-71.12471950599996, -15.45747031499991], [-71.09451374399998, -15.464036784999848], [-71.07481433399994, -15.4719165489999], [-71.03541551499995, -15.45418707999994], [-71.02831782482144, -15.44435950898361], [-71.01834269299991, -15.430547787999899], [-71.00258316499998, -15.394432202999951], [-70.97894387299993, -15.352406794999979], [-70.95333463999992, -15.328767503999927], [-70.95070805199992, -15.314321269999937], [-70.96449763899994, -15.2828022139999], [-70.96318434499989, -15.2414334529999], [-70.95070805199992, -15.217137513999944], [-70.96843752099988, -15.134399991999942], [-70.96778087399997, -15.10682081899995], [-70.96909416799986, -15.051005823999958], [-70.98091381399985, -15.023426649999863], [-70.99076351899998, -15.002413945999876], [-70.98748028399996, -14.986654417999944], [-70.97894387299993, -14.959731890999933], [-70.97434734399991, -14.831685726999979], [-70.96384099199997, -14.816582845999903], [-70.95596122799992, -14.793600200999947], [-70.96843752099988, -14.771274202999962], [-71.00061322399995, -14.75814126299997], [-71.02556580999999, -14.753544733999945], [-71.04723515999996, -14.750261498999976], [-71.06693456999989, -14.731875382999817], [-71.07875421599988, -14.708236090999947], [-71.09396216099992, -14.695444607999889], [-71.08849885799998, -14.675692665999975], [-71.07042793199992, -14.650897674999953], [-71.04521268799994, -14.63240649599993], [-71.02041769699991, -14.61517607899998], [-70.99226067399997, -14.594583628999942], [-70.96872644499996, -14.583657022999944], [-70.96704542899988, -14.555079745999876], [-70.97124796999998, -14.517256878999888], [-70.96914669999995, -14.486998584999924], [-70.95530458099995, -14.463306760999956], [-70.95858781599998, -14.44229405699997], [-70.96252769799992, -14.427191175999837], [-70.96581093299989, -14.408148412999935], [-70.95070805199992, -14.389105650999966], [-70.92378552499991, -14.363496417999954], [-70.90211617399996, -14.33132071499989], [-70.87585029399997, -14.300458305999939], [-70.86928382399998, -14.277475660999926], [-70.87059711799992, -14.259089544999938], [-70.87388035299995, -14.233480311999926], [-70.86665723599998, -14.207871078999915], [-70.85483758999999, -14.186201727999958], [-70.83710812099997, -14.174382081999966], [-70.82397518099992, -14.161249141999974], [-70.80493241799996, -14.145489614999917], [-70.78720294999994, -14.119223734999878], [-70.78326306799983, -14.108717382999941], [-70.78588965599988, -14.09361450199998], [-70.7944260669999, -14.08179485599993], [-70.81740871099993, -14.06734862199994], [-70.83251159199995, -14.04961915299998], [-70.83513817999994, -14.01219027399992], [-70.82528847499998, -13.983954452999967], [-70.80952894699988, -13.954405337999845], [-70.8062457119999, -13.926169516999948], [-70.81149888799996, -13.90778340199995], [-70.83316823899992, -13.87035452299989], [-70.84498788499991, -13.848685171999932], [-70.84367459099997, -13.825702526999919], [-70.83054165099998, -13.809286351999845], [-70.81872200499998, -13.813882880999927], [-70.77210006899998, -13.823732585999892], [-70.72482148499995, -13.832268996999915], [-70.70052554599988, -13.842775348999965], [-70.69001919399994, -13.818479409999952], [-70.69724231099985, -13.79287017699994], [-70.70577872199988, -13.77514070799998], [-70.71694172099996, -13.760037826999962], [-70.71759836799987, -13.735741887999836], [-70.69986889899991, -13.702252890999944], [-70.68016948899998, -13.679270246999977], [-70.65718684399997, -13.66285407199996], [-70.63617413999998, -13.651034425999967], [-70.60465508399994, -13.63330495699995], [-70.57182273399997, -13.611635605999822], [-70.55015338399994, -13.591279548999978], [-70.52848403299987, -13.574206726999932], [-70.50287479999997, -13.53546455399993], [-70.48054880199993, -13.50328885099998], [-70.45690950999995, -13.471769794999943], [-70.4490297459999, -13.43696750499987], [-70.4372100999999, -13.410701624999945], [-70.42079392499994, -13.385749038999904], [-70.39912457399998, -13.369989510999972], [-70.38467833999988, -13.350290100999928], [-70.36497892999995, -13.325337514999944], [-70.3518459899999, -13.310234633999869], [-70.35578587199996, -13.285938694999913], [-70.38402169299991, -13.272149107999951], [-70.3958413389999, -13.265582637999898], [-70.38008181099997, -13.23603352299989], [-70.37811186999988, -13.190724880999937], [-70.39419658607773, -13.161941704860737]]]}}]}