{
  "type": "FeatureCollection",
  "name": "rios_demo",
  "_demo": true,
  "_nota": "Datos de prueba. Trazas aproximadas. Reemplazar por geoJSON oficial en Fase 1.",
  "features": [
    {
      "type": "Feature",
      "properties": { "nombre": "Río Vilcanota / Urubamba", "tipo": "rio" },
      "geometry": {
        "type": "LineString",
        "coordinates": [
          [-71.235, -14.270], [-71.300, -14.150], [-71.420, -13.980],
          [-71.560, -13.760], [-71.700, -13.560], [-71.880, -13.420],
          [-72.020, -13.330], [-72.120, -13.300], [-72.300, -13.230], [-72.540, -13.160]
        ]
      }
    },
    {
      "type": "Feature",
      "properties": { "nombre": "Río Apurímac", "tipo": "rio" },
      "geometry": {
        "type": "LineString",
        "coordinates": [
          [-71.880, -14.520], [-72.000, -14.300], [-72.150, -14.080],
          [-72.350, -13.880], [-72.520, -13.700], [-72.640, -13.520], [-72.700, -13.350]
        ]
      }
    },
    {
      "type": "Feature",
      "properties": { "nombre": "Río Mapacho / Paucartambo", "tipo": "rio" },
      "geometry": {
        "type": "LineString",
        "coordinates": [
          [-71.600, -13.820], [-71.560, -13.640], [-71.520, -13.440],
          [-71.480, -13.240], [-71.420, -13.020], [-71.360, -12.840]
        ]
      }
    }
  ]
}
