{
  "type": "FeatureCollection",
  "name": "lagunas_demo",
  "_demo": true,
  "_nota": "Datos de prueba. Geometrías aproximadas. Reemplazar por geoJSON oficial en Fase 1.",
  "features": [
    {
      "type": "Feature",
      "properties": { "nombre": "Laguna Piuray", "tipo": "laguna" },
      "geometry": {
        "type": "Polygon",
        "coordinates": [[
          [-72.145, -13.418], [-72.118, -13.412], [-72.103, -13.426],
          [-72.110, -13.444], [-72.134, -13.450], [-72.150, -13.436], [-72.145, -13.418]
        ]]
      }
    },
    {
      "type": "Feature",
      "properties": { "nombre": "Laguna Huaypo", "tipo": "laguna" },
      "geometry": {
        "type": "Polygon",
        "coordinates": [[
          [-72.205, -13.448], [-72.182, -13.444], [-72.172, -13.458],
          [-72.183, -13.470], [-72.203, -13.468], [-72.205, -13.448]
        ]]
      }
    },
    {
      "type": "Feature",
      "properties": { "nombre": "Laguna Pomacanchi", "tipo": "laguna" },
      "geometry": {
        "type": "Polygon",
        "coordinates": [[
          [-71.595, -14.010], [-71.545, -13.998], [-71.520, -14.028],
          [-71.540, -14.062], [-71.588, -14.060], [-71.605, -14.034], [-71.595, -14.010]
        ]]
      }
    },
    {
      "type": "Feature",
      "properties": { "nombre": "Laguna Sibinacocha", "tipo": "laguna" },
      "geometry": {
        "type": "Polygon",
        "coordinates": [[
          [-71.030, -13.820], [-71.005, -13.808], [-70.992, -13.846],
          [-71.000, -13.892], [-71.022, -13.900], [-71.038, -13.862], [-71.030, -13.820]
        ]]
      }
    }
  ]
}
